[{"OBJECT_NAME":"TRANSPORTER-10 OBJECT AG","OBJECT_ID":"2024-043AG","EPOCH":"2026-03-09T22:12:45.387648","MEAN_MOTION":15.30759727,"ECCENTRICITY":0.00093005,"INCLINATION":97.5471,"RA_OF_ASC_NODE":205.7101,"ARG_OF_PERICENTER":226.5958,"MEAN_ANOMALY":133.4509,"EPHEMERIS_TYPE":0,"CLASSIFICATION_TYPE":"U","NORAD_CAT_ID":59128,"ELEMENT_SET_NO":999,"REV_AT_EPOCH":11192,"BSTAR":0.00032170115,"MEAN_MOTION_DOT":9.498e-5,"MEAN_MOTION_DDOT":0},{"OBJECT_NAME":"STARLINK-33822","OBJECT_ID":"2025-083AA","EPOCH":"2026-03-09T05:21:10.376064","MEAN_MOTION":15.27587513,"ECCENTRICITY":0.00020161,"INCLINATION":43.0043,"RA_OF_ASC_NODE":7.9983,"ARG_OF_PERICENTER":254.4439,"MEAN_ANOMALY":105.619,"EPHEMERIS_TYPE":0,"CLASSIFICATION_TYPE":"U","NORAD_CAT_ID":63658,"ELEMENT_SET_NO":999,"REV_AT_EPOCH":5002,"BSTAR":0.0013542806,"MEAN_MOTION_DOT":0.00037202,"MEAN_MOTION_DDOT":0}]
